{
  "norad_id": 68646,
  "name": "QIANFAN-119",
  "history": [
    {
      "epoch": "2026-04-15T14:28:31.994112Z",
      "apogee_km": 814.9726141243755,
      "perigee_km": 794.7999551922067,
      "latitude_deg": 8.103941418615328e-05,
      "longitude_deg": -93.11055317420227,
      "height_km": 817.9288177365125,
      "semi_major_axis_km": 7183.023284658291,
      "eccentricity": 0.00140419,
      "inclination_deg": 88.9909,
      "raan_deg": 327.7856,
      "arg_perigee_deg": 188.4862,
      "mean_anomaly_deg": 171.6097,
      "mean_motion_rev_day": 14.26073306
    },
    {
      "epoch": "2026-04-17T22:04:24.018816Z",
      "apogee_km": 836.5826153718472,
      "perigee_km": 814.6525135015163,
      "latitude_deg": -5.989620777189161e-05,
      "longitude_deg": 150.37125862441096,
      "height_km": 839.4704533454577,
      "semi_major_axis_km": 7203.754564436682,
      "eccentricity": 0.00152213,
      "inclination_deg": 88.9901,
      "raan_deg": 327.5175,
      "arg_perigee_deg": 190.1275,
      "mean_anomaly_deg": 169.961,
      "mean_motion_rev_day": 14.19921713
    },
    {
      "epoch": "2026-04-20T12:32:26.550528Z",
      "apogee_km": 826.58706655473,
      "perigee_km": 805.413569366001,
      "latitude_deg": 1.022982227200456e-05,
      "longitude_deg": -69.50343499804956,
      "height_km": 829.5497073596888,
      "semi_major_axis_km": 7194.137317960365,
      "eccentricity": 0.00147158,
      "inclination_deg": 88.9906,
      "raan_deg": 327.2188,
      "arg_perigee_deg": 172.3843,
      "mean_anomaly_deg": 187.7575,
      "mean_motion_rev_day": 14.22769928
    },
    {
      "epoch": "2026-04-21T00:21:22.344480Z",
      "apogee_km": 826.6391825952087,
      "perigee_km": 805.3596464946258,
      "latitude_deg": -3.562872494159762e-05,
      "longitude_deg": 112.72214302986607,
      "height_km": 829.5566417509793,
      "semi_major_axis_km": 7194.136414544917,
      "eccentricity": 0.00147895,
      "inclination_deg": 88.9905,
      "raan_deg": 327.1621,
      "arg_perigee_deg": 170.7683,
      "mean_anomaly_deg": 189.3783,
      "mean_motion_rev_day": 14.22770196
    },
    {
      "epoch": "2026-04-22T13:29:26.246976Z",
      "apogee_km": 826.7904174942078,
      "perigee_km": 805.2055665123007,
      "latitude_deg": 5.285391461024543e-05,
      "longitude_deg": -85.99727609487886,
      "height_km": 829.5115289498737,
      "semi_major_axis_km": 7194.134992003254,
      "eccentricity": 0.00150017,
      "inclination_deg": 88.9903,
      "raan_deg": 326.984,
      "arg_perigee_deg": 165.7605,
      "mean_anomaly_deg": 194.4013,
      "mean_motion_rev_day": 14.22770618
    },
    {
      "epoch": "2026-04-22T20:14:32.403840Z",
      "apogee_km": 826.8202794237668,
      "perigee_km": 805.1748551031669,
      "latitude_deg": -5.7281909863725326e-05,
      "longitude_deg": 172.41738480397944,
      "height_km": 829.497407858986,
      "semi_major_axis_km": 7194.134567263466,
      "eccentricity": 0.00150438,
      "inclination_deg": 88.9903,
      "raan_deg": 326.9516,
      "arg_perigee_deg": 164.8711,
      "mean_anomaly_deg": 195.2933,
      "mean_motion_rev_day": 14.22770744
    }
  ]
}